{
  "type": "FeatureCollection",
  "features": [
    {
      "type": "Feature",
      "properties": {
        "norad_id": 33939,
        "name": "COSMOS 2251 DEB",
        "group": "cosmos-2251-debris",
        "lat": -32.526275240096965,
        "lon": -94.4226062273009,
        "alt_km": 574.9301929753565,
        "timestamp": "2025-12-15T11:38:37.545207+00:00",
        "meta_object_name": "COSMOS 2251 DEB",
        "meta_object_id": "1993-036EU",
        "meta_epoch": "2025-12-14T13:53:09.136608",
        "meta_mean_motion": 15.00066228,
        "meta_eccentricity": 0.00038454,
        "meta_inclination": 74.0062,
        "meta_ra_of_asc_node": 76.8832,
        "meta_arg_of_pericenter": 48.6281,
        "meta_mean_anomaly": 311.5236,
        "meta_ephemeris_type": 0,
        "meta_classification_type": "U",
        "meta_norad_cat_id": 33939,
        "meta_element_set_no": 999,
        "meta_rev_at_epoch": 88780,
        "meta_bstar": 0.0023666392,
        "meta_mean_motion_dot": 0.00029582,
        "meta_mean_motion_ddot": 0,
        "tle_line1": "1 33939U 93036EU  25348.57857797  .00029582  00000+0  23666-2 0  9995",
        "tle_line2": "2 33939  74.0062  76.8832 0003845  48.6281 311.5236 15.00066228887803"
      },
      "geometry": {
        "type": "Point",
        "coordinates": [
          -94.4226062273009,
          -32.526275240096965
        ]
      }
    },
    {
      "type": "Feature",
      "properties": {
        "norad_id": 33940,
        "name": "COSMOS 2251 DEB",
        "group": "cosmos-2251-debris",
        "lat": -58.51640660399336,
        "lon": 110.40906930096713,
        "alt_km": 702.2766820393535,
        "timestamp": "2025-12-15T11:38:37.545216+00:00",
        "meta_object_name": "COSMOS 2251 DEB",
        "meta_object_id": "1993-036EV",
        "meta_epoch": "2025-12-14T16:15:01.334592",
        "meta_mean_motion": 14.58818526,
        "meta_eccentricity": 0.00112174,
        "meta_inclination": 74.0393,
        "meta_ra_of_asc_node": 139.8078,
        "meta_arg_of_pericenter": 219.7679,
        "meta_mean_anomaly": 155.6788,
        "meta_ephemeris_type": 0,
        "meta_classification_type": "U",
        "meta_norad_cat_id": 33940,
        "meta_element_set_no": 999,
        "meta_rev_at_epoch": 88622,
        "meta_bstar": 0.0010016984,
        "meta_mean_motion_dot": 4.663e-05,
        "meta_mean_motion_ddot": 0,
        "tle_line1": "1 33940U 93036EV  25348.67709878  .00004663  00000+0  10017-2 0  9993",
        "tle_line2": "2 33940  74.0393 139.8078 0011217 219.7679 155.6788 14.58818526886220"
      },
      "geometry": {
        "type": "Point",
        "coordinates": [
          110.40906930096713,
          -58.51640660399336
        ]
      }
    },
    {
      "type": "Feature",
      "properties": {
        "norad_id": 33942,
        "name": "COSMOS 2251 DEB",
        "group": "cosmos-2251-debris",
        "lat": -65.47276456926731,
        "lon": -129.07851263849324,
        "alt_km": 765.4992026757418,
        "timestamp": "2025-12-15T11:38:37.545226+00:00",
        "meta_object_name": "COSMOS 2251 DEB",
        "meta_object_id": "1993-036EX",
        "meta_epoch": "2025-12-14T23:00:18.387360",
        "meta_mean_motion": 14.37991727,
        "meta_eccentricity": 0.00204202,
        "meta_inclination": 74.0366,
        "meta_ra_of_asc_node": 270.7425,
        "meta_arg_of_pericenter": 353.5831,
        "meta_mean_anomaly": 90.4846,
        "meta_ephemeris_type": 0,
        "meta_classification_type": "U",
        "meta_norad_cat_id": 33942,
        "meta_element_set_no": 999,
        "meta_rev_at_epoch": 88166,
        "meta_bstar": 0.00023779978,
        "meta_mean_motion_dot": 6.94e-06,
        "meta_mean_motion_ddot": 0,
        "tle_line1": "1 33942U 93036EX  25348.95854615  .00000694  00000+0  23780-3 0  9998",
        "tle_line2": "2 33942  74.0366 270.7425 0020420 353.5831  90.4846 14.37991727881662"
      },
      "geometry": {
        "type": "Point",
        "coordinates": [
          -129.07851263849324,
          -65.47276456926731
        ]
      }
    },
    {
      "type": "Feature",
      "properties": {
        "norad_id": 33944,
        "name": "COSMOS 2251 DEB",
        "group": "cosmos-2251-debris",
        "lat": 20.649673917357262,
        "lon": 117.68417045744883,
        "alt_km": 800.7968849041181,
        "timestamp": "2025-12-15T11:38:37.545236+00:00",
        "meta_object_name": "COSMOS 2251 DEB",
        "meta_object_id": "1993-036EZ",
        "meta_epoch": "2025-12-14T21:49:29.629344",
        "meta_mean_motion": 14.37347739,
        "meta_eccentricity": 0.01122592,
        "meta_inclination": 74.0403,
        "meta_ra_of_asc_node": 304.9343,
        "meta_arg_of_pericenter": 43.9739,
        "meta_mean_anomaly": 15.0613,
        "meta_ephemeris_type": 0,
        "meta_classification_type": "U",
        "meta_norad_cat_id": 33944,
        "meta_element_set_no": 999,
        "meta_rev_at_epoch": 88059,
        "meta_bstar": 0.00037009859,
        "meta_mean_motion_dot": 1.161e-05,
        "meta_mean_motion_ddot": 0,
        "tle_line1": "1 33944U 93036EZ  25348.90937071  .00001161  00000+0  37010-3 0  9994",
        "tle_line2": "2 33944  74.0403 304.9343 0112259  43.9739  15.0613 14.37347739880598"
      },
      "geometry": {
        "type": "Point",
        "coordinates": [
          117.68417045744883,
          20.649673917357262
        ]
      }
    },
    {
      "type": "Feature",
      "properties": {
        "norad_id": 33945,
        "name": "COSMOS 2251 DEB",
        "group": "cosmos-2251-debris",
        "lat": -69.70230677406012,
        "lon": -109.49958127279031,
        "alt_km": 787.1211875273893,
        "timestamp": "2025-12-15T11:38:37.545246+00:00",
        "meta_object_name": "COSMOS 2251 DEB",
        "meta_object_id": "1993-036FA",
        "meta_epoch": "2025-12-14T20:56:25.963872",
        "meta_mean_motion": 14.34602537,
        "meta_eccentricity": 0.00219963,
        "meta_inclination": 74.0299,
        "meta_ra_of_asc_node": 302.3589,
        "meta_arg_of_pericenter": 28.1106,
        "meta_mean_anomaly": 332.1229,
        "meta_ephemeris_type": 0,
        "meta_classification_type": "U",
        "meta_norad_cat_id": 33945,
        "meta_element_set_no": 999,
        "meta_rev_at_epoch": 88046,
        "meta_bstar": 0.0001465427,
        "meta_mean_motion_dot": 3.89e-06,
        "meta_mean_motion_ddot": 0,
        "tle_line1": "1 33945U 93036FA  25348.87252273  .00000389  00000+0  14654-3 0  9995",
        "tle_line2": "2 33945  74.0299 302.3589 0021996  28.1106 332.1229 14.34602537880465"
      },
      "geometry": {
        "type": "Point",
        "coordinates": [
          -109.49958127279031,
          -69.70230677406012
        ]
      }
    },
    {
      "type": "Feature",
      "properties": {
        "norad_id": 33948,
        "name": "COSMOS 2251 DEB",
        "group": "cosmos-2251-debris",
        "lat": 35.95644988751645,
        "lon": 108.11266100062788,
        "alt_km": 779.9280805458066,
        "timestamp": "2025-12-15T11:38:37.545255+00:00",
        "meta_object_name": "COSMOS 2251 DEB",
        "meta_object_id": "1993-036FD",
        "meta_epoch": "2025-12-14T21:36:19.451232",
        "meta_mean_motion": 14.35631806,
        "meta_eccentricity": 0.00228112,
        "meta_inclination": 74.0357,
        "meta_ra_of_asc_node": 301.1698,
        "meta_arg_of_pericenter": 16.4429,
        "meta_mean_anomaly": 343.7458,
        "meta_ephemeris_type": 0,
        "meta_classification_type": "U",
        "meta_norad_cat_id": 33948,
        "meta_element_set_no": 999,
        "meta_rev_at_epoch": 88054,
        "meta_bstar": 0.00021592172,
        "meta_mean_motion_dot": 5.98e-06,
        "meta_mean_motion_ddot": 0,
        "tle_line1": "1 33948U 93036FD  25348.90022513  .00000598  00000+0  21592-3 0  9995",
        "tle_line2": "2 33948  74.0357 301.1698 0022811  16.4429 343.7458 14.35631806880549"
      },
      "geometry": {
        "type": "Point",
        "coordinates": [
          108.11266100062788,
          35.95644988751645
        ]
      }
    },
    {
      "type": "Feature",
      "properties": {
        "norad_id": 33971,
        "name": "COSMOS 2251 DEB",
        "group": "cosmos-2251-debris",
        "lat": -64.74801442472014,
        "lon": 106.05665100229326,
        "alt_km": 768.1772687084085,
        "timestamp": "2025-12-15T11:38:37.545265+00:00",
        "meta_object_name": "COSMOS 2251 DEB",
        "meta_object_id": "1993-036FE",
        "meta_epoch": "2025-12-14T21:29:15.850176",
        "meta_mean_motion": 14.39729069,
        "meta_eccentricity": 0.00186134,
        "meta_inclination": 74.0248,
        "meta_ra_of_asc_node": 249.7494,
        "meta_arg_of_pericenter": 349.8049,
        "meta_mean_anomaly": 84.6579,
        "meta_ephemeris_type": 0,
        "meta_classification_type": "U",
        "meta_norad_cat_id": 33971,
        "meta_element_set_no": 999,
        "meta_rev_at_epoch": 88170,
        "meta_bstar": 0.00028351252,
        "meta_mean_motion_dot": 8.63e-06,
        "meta_mean_motion_ddot": 0,
        "tle_line1": "1 33971U 93036FE  25348.89532234  .00000863  00000+0  28351-3 0  9990",
        "tle_line2": "2 33971  74.0248 249.7494 0018613 349.8049  84.6579 14.39729069881708"
      },
      "geometry": {
        "type": "Point",
        "coordinates": [
          106.05665100229326,
          -64.74801442472014
        ]
      }
    }
  ]
}